start=new Date('2022-09-16T00:00:00.000Z').valueOf();
sats=[{"MEAN_ELEMENT_THEORY":"SGP4","MEAN_MOTION_DOT":"0.00000737","RCS_SIZE":"LARGE","CLASSIFICATION_TYPE":"U","RA_OF_ASC_NODE":"219.1560","MEAN_ANOMALY":"98.3967","INCLINATION":"70.0002","OBJECT_TYPE":"PAYLOAD","DECAY_DATE":null,"GP_ID":"212682084","TLE_LINE2":"2 49140  70.0002 219.1560 0002897 261.6863  98.3967 14.96720639 56573","SEMIMAJOR_AXIS":"6955.174","REF_FRAME":"TEME","EPOCH":"2022-09-15T14:31:59.684160","APOAPSIS":"579.054","TLE_LINE1":"1 49140U 21082L   22258.60555190  .00000737  00000-0  72396-4 0  9999","ARG_OF_PERICENTER":"261.6863","PERIAPSIS":"575.024","TIME_SYSTEM":"UTC","EPHEMERIS_TYPE":"0","COUNTRY_CODE":"US","MEAN_MOTION_DDOT":"0.0000000000000","REV_AT_EPOCH":"5657","PERIOD":"96.210","ECCENTRICITY":"0.00028970","BSTAR":"0.00007239600000","OBJECT_NAME":"STARLINK-3118","OBJECT_ID":"2021-082L","ELEMENT_SET_NO":"999","NORAD_CAT_ID":"49140","FILE":"3575050","CENTER_NAME":"EARTH","LAUNCH_DATE":"2021-09-14","MEAN_MOTION":"14.96720639","SITE":"AFWTR"},{"GP_ID":"212681834","TLE_LINE2":"2 49141  70.0010 259.4791 0003293 248.5435 111.5373 14.98336763 56770","OBJECT_TYPE":"PAYLOAD","INCLINATION":"70.0010","DECAY_DATE":null,"RA_OF_ASC_NODE":"259.4791","RCS_SIZE":"LARGE","MEAN_MOTION_DOT":"-0.00000459","CLASSIFICATION_TYPE":"U","MEAN_ANOMALY":"111.5373","MEAN_ELEMENT_THEORY":"SGP4","PERIAPSIS":"569.748","TLE_LINE1":"1 49141U 21082M   22258.53080381 -.00000459  00000-0 -30704-4 0  9997","ARG_OF_PERICENTER":"248.5435","EPOCH":"2022-09-15T12:44:21.449184","APOAPSIS":"574.326","SEMIMAJOR_AXIS":"6950.172","REF_FRAME":"TEME","BSTAR":"-0.00003070400000","REV_AT_EPOCH":"5677","PERIOD":"96.107","MEAN_MOTION_DDOT":"0.0000000000000","ECCENTRICITY":"0.00032930","EPHEMERIS_TYPE":"0","COUNTRY_CODE":"US","TIME_SYSTEM":"UTC","SITE":"AFWTR","MEAN_MOTION":"14.98336763","LAUNCH_DATE":"2021-09-14","CENTER_NAME":"EARTH","ELEMENT_SET_NO":"999","FILE":"3575050","NORAD_CAT_ID":"49141","OBJECT_ID":"2021-082M","OBJECT_NAME":"STARLINK-3093"},{"OBJECT_ID":"2021-082N","OBJECT_NAME":"STARLINK-3042","MEAN_MOTION":"14.96711363","LAUNCH_DATE":"2021-09-14","CENTER_NAME":"EARTH","SITE":"AFWTR","ELEMENT_SET_NO":"999","NORAD_CAT_ID":"49142","FILE":"3575014","EPHEMERIS_TYPE":"0","COUNTRY_CODE":"US","TIME_SYSTEM":"UTC","BSTAR":"0.00013042000000","MEAN_MOTION_DDOT":"0.0000000000000","REV_AT_EPOCH":"5663","PERIOD":"96.211","ECCENTRICITY":"0.00029480","EPOCH":"2022-09-16T00:02:22.952256","APOAPSIS":"579.118","SEMIMAJOR_AXIS":"6955.203","REF_FRAME":"TEME","PERIAPSIS":"575.018","TLE_LINE1":"1 49142U 21082N   22259.00165454  .00001401  00000-0  13042-3 0  9997","ARG_OF_PERICENTER":"261.0800","RCS_SIZE":"LARGE","CLASSIFICATION_TYPE":"U","MEAN_MOTION_DOT":"0.00001401","RA_OF_ASC_NODE":"218.1760","MEAN_ANOMALY":"99.0025","MEAN_ELEMENT_THEORY":"SGP4","GP_ID":"212658195","TLE_LINE2":"2 49142  69.9991 218.1760 0002948 261.0800  99.0025 14.96711363 56636","INCLINATION":"69.9991","OBJECT_TYPE":"PAYLOAD","DECAY_DATE":null},{"OBJECT_NAME":"STARLINK-3109","OBJECT_ID":"2021-082P","ELEMENT_SET_NO":"999","FILE":"3575050","NORAD_CAT_ID":"49143","SITE":"AFWTR","MEAN_MOTION":"14.98327533","LAUNCH_DATE":"2021-09-14","CENTER_NAME":"EARTH","TIME_SYSTEM":"UTC","EPHEMERIS_TYPE":"0","COUNTRY_CODE":"US","PERIOD":"96.107","REV_AT_EPOCH":"5720","MEAN_MOTION_DDOT":"0.0000000000000","ECCENTRICITY":"0.00048380","BSTAR":"-0.00002066600000","SEMIMAJOR_AXIS":"6950.201","REF_FRAME":"TEME","EPOCH":"2022-09-15T16:46:35.562144","APOAPSIS":"575.428","TLE_LINE1":"1 49143U 21082P   22258.69902271 -.00000340  00000-0 -20666-4 0  9992","ARG_OF_PERICENTER":"250.4559","PERIAPSIS":"568.703","MEAN_ELEMENT_THEORY":"SGP4","RA_OF_ASC_NODE":"239.0643","RCS_SIZE":"LARGE","CLASSIFICATION_TYPE":"U","MEAN_MOTION_DOT":"-0.00000340","MEAN_ANOMALY":"109.6078","OBJECT_TYPE":"PAYLOAD","INCLINATION":"69.9992","DECAY_DATE":null,"GP_ID":"212683332","TLE_LINE2":"2 49143  69.9992 239.0643 0004838 250.4559 109.6078 14.98327533 57207"},{"INCLINATION":"69.9986","OBJECT_TYPE":"PAYLOAD","DECAY_DATE":null,"GP_ID":"212658379","TLE_LINE2":"2 49144  69.9986 259.8501 0002930 248.3247 111.7600 14.98335811 55554","MEAN_ELEMENT_THEORY":"SGP4","RCS_SIZE":"LARGE","CLASSIFICATION_TYPE":"U","MEAN_MOTION_DOT":"-0.00000386","RA_OF_ASC_NODE":"259.8501","MEAN_ANOMALY":"111.7600","TLE_LINE1":"1 49144U 21082Q   22258.39251169 -.00000386  00000-0 -24557-4 0  9996","ARG_OF_PERICENTER":"248.3247","PERIAPSIS":"570.004","SEMIMAJOR_AXIS":"6950.175","REF_FRAME":"TEME","EPOCH":"2022-09-15T09:25:13.010016","APOAPSIS":"574.076","MEAN_MOTION_DDOT":"0.0000000000000","REV_AT_EPOCH":"5555","PERIOD":"96.107","ECCENTRICITY":"0.00029300","BSTAR":"-0.00002455700000","TIME_SYSTEM":"UTC","EPHEMERIS_TYPE":"0","COUNTRY_CODE":"US","ELEMENT_SET_NO":"999","NORAD_CAT_ID":"49144","FILE":"3575014","LAUNCH_DATE":"2021-09-14","CENTER_NAME":"EARTH","MEAN_MOTION":"14.98335811","SITE":"AFWTR","OBJECT_NAME":"STARLINK-3100","OBJECT_ID":"2021-082Q"},{"INCLINATION":"70.0003","OBJECT_TYPE":"PAYLOAD","DECAY_DATE":null,"GP_ID":"212658383","TLE_LINE2":"2 49145  70.0003 218.2061 0002815 263.3762  96.7076 14.96707850 56621","MEAN_ELEMENT_THEORY":"SGP4","MEAN_MOTION_DOT":"-0.00000038","RCS_SIZE":"LARGE","CLASSIFICATION_TYPE":"U","RA_OF_ASC_NODE":"218.2061","MEAN_ANOMALY":"96.7076","TLE_LINE1":"1 49145U 21082R   22258.98903299 -.00000038  00000-0  47095-5 0  9996","ARG_OF_PERICENTER":"263.3762","PERIAPSIS":"575.121","SEMIMAJOR_AXIS":"6955.214","REF_FRAME":"TEME","EPOCH":"2022-09-15T23:44:12.450336","APOAPSIS":"579.037","MEAN_MOTION_DDOT":"0.0000000000000","REV_AT_EPOCH":"5662","PERIOD":"96.211","ECCENTRICITY":"0.00028150","BSTAR":"0.00000470950000","TIME_SYSTEM":"UTC","EPHEMERIS_TYPE":"0","COUNTRY_CODE":"US","ELEMENT_SET_NO":"999","NORAD_CAT_ID":"49145","FILE":"3575014","LAUNCH_DATE":"2021-09-14","MEAN_MOTION":"14.96707850","CENTER_NAME":"EARTH","SITE":"AFWTR","OBJECT_NAME":"STARLINK-3119","OBJECT_ID":"2021-082R"},{"MEAN_MOTION_DOT":"0.00000487","RCS_SIZE":"LARGE","CLASSIFICATION_TYPE":"U","RA_OF_ASC_NODE":"239.0852","MEAN_ANOMALY":"103.5372","MEAN_ELEMENT_THEORY":"SGP4","GP_ID":"212682586","TLE_LINE2":"2 49146  69.9990 239.0852 0002949 256.5458 103.5372 14.98339265 57245","INCLINATION":"69.9990","OBJECT_TYPE":"PAYLOAD","DECAY_DATE":null,"EPOCH":"2022-09-15T16:39:43.263072","APOAPSIS":"574.079","SEMIMAJOR_AXIS":"6950.164","REF_FRAME":"TEME","PERIAPSIS":"569.980","TLE_LINE1":"1 49146U 21082S   22258.69425073  .00000487  00000-0  48610-4 0  9994","ARG_OF_PERICENTER":"256.5458","EPHEMERIS_TYPE":"0","COUNTRY_CODE":"US","TIME_SYSTEM":"UTC","BSTAR":"0.00004861000000","MEAN_MOTION_DDOT":"0.0000000000000","REV_AT_EPOCH":"5724","PERIOD":"96.106","ECCENTRICITY":"0.00029490","OBJECT_ID":"2021-082S","OBJECT_NAME":"STARLINK-3116","MEAN_MOTION":"14.98339265","LAUNCH_DATE":"2021-09-14","CENTER_NAME":"EARTH","SITE":"AFWTR","ELEMENT_SET_NO":"999","NORAD_CAT_ID":"49146","FILE":"3575050"},{"TLE_LINE1":"1 49147U 21082T   22258.86313211 -.00000239  00000-0 -12846-4 0  9993","ARG_OF_PERICENTER":"258.8080","PERIAPSIS":"575.038","SEMIMAJOR_AXIS":"6955.213","REF_FRAME":"TEME","EPOCH":"2022-09-15T20:42:54.614304","APOAPSIS":"579.118","INCLINATION":"70.0005","OBJECT_TYPE":"PAYLOAD","DECAY_DATE":null,"GP_ID":"212682833","TLE_LINE2":"2 49147  70.0005 218.5241 0002933 258.8080 101.2749 14.96707984 56617","MEAN_ELEMENT_THEORY":"SGP4","RCS_SIZE":"LARGE","CLASSIFICATION_TYPE":"U","MEAN_MOTION_DOT":"-0.00000239","RA_OF_ASC_NODE":"218.5241","MEAN_ANOMALY":"101.2749","ELEMENT_SET_NO":"999","NORAD_CAT_ID":"49147","FILE":"3575050","CENTER_NAME":"EARTH","LAUNCH_DATE":"2021-09-14","MEAN_MOTION":"14.96707984","SITE":"AFWTR","OBJECT_NAME":"STARLINK-3071","OBJECT_ID":"2021-082T","MEAN_MOTION_DDOT":"0.0000000000000","REV_AT_EPOCH":"5661","PERIOD":"96.211","ECCENTRICITY":"0.00029330","BSTAR":"-0.00001284600000","TIME_SYSTEM":"UTC","EPHEMERIS_TYPE":"0","COUNTRY_CODE":"US"},{"MEAN_ANOMALY":"102.2196","RA_OF_ASC_NODE":"239.5948","MEAN_MOTION_DOT":"-0.00000227","RCS_SIZE":"LARGE","CLASSIFICATION_TYPE":"U","MEAN_ELEMENT_THEORY":"SGP4","TLE_LINE2":"2 49148  69.9980 239.5948 0003045 257.8622 102.2196 14.98328111 57183","GP_ID":"212648510","DECAY_DATE":null,"OBJECT_TYPE":"PAYLOAD","INCLINATION":"69.9980","APOAPSIS":"574.180","EPOCH":"2022-09-15T11:44:27.698208","REF_FRAME":"TEME","SEMIMAJOR_AXIS":"6950.199","PERIAPSIS":"569.947","ARG_OF_PERICENTER":"257.8622","TLE_LINE1":"1 49148U 21082U   22258.48920947 -.00000227  00000-0 -11267-4 0  9995","COUNTRY_CODE":"US","EPHEMERIS_TYPE":"0","TIME_SYSTEM":"UTC","BSTAR":"-0.00001126700000","ECCENTRICITY":"0.00030450","REV_AT_EPOCH":"5718","PERIOD":"96.107","MEAN_MOTION_DDOT":"0.0000000000000","OBJECT_ID":"2021-082U","OBJECT_NAME":"STARLINK-3048","SITE":"AFWTR","LAUNCH_DATE":"2021-09-14","MEAN_MOTION":"14.98328111","CENTER_NAME":"EARTH","FILE":"3574619","NORAD_CAT_ID":"49148","ELEMENT_SET_NO":"999"},{"OBJECT_NAME":"STARLINK-3053","OBJECT_ID":"2021-082V","NORAD_CAT_ID":"49149","FILE":"3574601","ELEMENT_SET_NO":"999","CENTER_NAME":"EARTH","LAUNCH_DATE":"2021-09-14","MEAN_MOTION":"14.98334157","SITE":"AFWTR","TIME_SYSTEM":"UTC","COUNTRY_CODE":"US","EPHEMERIS_TYPE":"0","ECCENTRICITY":"0.00031380","MEAN_MOTION_DDOT":"0.0000000000000","PERIOD":"96.107","REV_AT_EPOCH":"5674","BSTAR":"0.00003603800000","REF_FRAME":"TEME","SEMIMAJOR_AXIS":"6950.180","APOAPSIS":"574.226","EPOCH":"2022-09-15T09:18:21.388320","ARG_OF_PERICENTER":"259.2592","TLE_LINE1":"1 49149U 21082V   22258.38774755  .00000337  00000-0  36038-4 0  9992","PERIAPSIS":"569.864","MEAN_ELEMENT_THEORY":"SGP4","MEAN_ANOMALY":"100.8214","RCS_SIZE":"LARGE","MEAN_MOTION_DOT":"0.00000337","CLASSIFICATION_TYPE":"U","RA_OF_ASC_NODE":"259.8551","DECAY_DATE":null,"INCLINATION":"69.9991","OBJECT_TYPE":"PAYLOAD","TLE_LINE2":"2 49149  69.9991 259.8551 0003138 259.2592 100.8214 14.98334157 56749","GP_ID":"212645676"}];
